STARLINK-31276          
1 59075U 24041B   26068.08359300 -.00001285  00000+0 -37168-4 0  9993
2 59075  42.9993 313.7188 0001800 259.0315 101.0335 15.27576361114236
FLOCK 4G-5              
1 62663U 25009BG  26068.45638436  .00011278  00000+0  40688-3 0  9997
2 62663  97.4058 151.2478 0002094 314.5072  45.5996 15.28679529 63699
